NORAD_CAT_ID,OBJECT_NAME,OBJECT_TYPE,EPOCH,MEAN_MOTION,ECCENTRICITY,INCLINATION,RA_OF_ASC_NODE,ARG_OF_PERICENTER,MEAN_ANOMALY,BSTAR,MEAN_MOTION_DOT,MEAN_MOTION_DDOT,TLE_LINE0,TLE_LINE1,TLE_LINE2,SEMIMAJOR_AXIS,PERIOD,APOGEE,PERIGEE,DECAYED
53249.0,STARLINK-4128,PAYLOAD,2022-10-21 22:00:00,15.08831635,0.0002364,53.2187,337.2419,27.6587,268.5118,0.00010624,1.403e-05,0.0,0 STARLINK-4128,1 53249U 22086H   22294.91667824  .00001403  00000-0  10624-3 0  9997,2 53249  53.2187 337.2419 0002364  27.6587 268.5118 15.08831635 14477,6917.906,95.438,541.406,538.136,0.0
53249.0,STARLINK-4128,PAYLOAD,2022-10-22 14:00:01,15.08829831,0.0002602,53.2186,334.251,25.9238,293.4297,0.0026449,0.00042047,0.0,0 STARLINK-4128,1 53249U 22086H   22295.58334491  .00042047  00000-0  26449-2 0  9992,2 53249  53.2186 334.2510 0002602  25.9238 293.4297 15.08829831  1302,6917.911,95.438,541.577,537.976,0.0
53249.0,STARLINK-4128,PAYLOAD,2022-10-22 22:00:00,15.088348300000002,0.0002386,53.2188,332.7530000000001,27.6924,303.2771,0.0012338,0.000194,0.0,0 STARLINK-4128,1 53249U 22086H   22295.91667824  .00019400  00000-0  12338-2 0  9997,2 53249  53.2188 332.7530 0002386  27.6924 303.2771 15.08834830 14620,6917.896,95.438,541.4119999999998,538.111,0.0
53249.0,STARLINK-4128,PAYLOAD,2022-10-23 14:00:01,15.08857172,0.0002595,53.2185,329.7619,24.2319,329.9524,-0.00021444,-3.702e-05,0.0,0 STARLINK-4128,1 53249U 22086H   22296.58334491 -.00003702  00000-0 -21444-3 0  9991,2 53249  53.2185 329.7619 0002595  24.2319 329.9524 15.08857172  1300,6917.828,95.436,541.488,537.898,0.0
53249.0,STARLINK-4128,PAYLOAD,2022-10-23 22:00:00,15.08836524,0.0002331999999999,53.2186,328.2638,25.2121,340.5938,-0.00031429,-5.287e-05,0.0,0 STARLINK-4128,1 53249U 22086H   22296.91667824 -.00005287  00000-0 -31429-3 0  9991,2 53249  53.2186 328.2638 0002332  25.2121 340.5938 15.08836524 14778,6917.891,95.438,541.369,538.143,0.0
53249.0,STARLINK-4128,PAYLOAD,2022-10-24 14:00:01,15.08795909,0.0002613,53.218,325.2727,24.8348,4.1243,0.0023106999999999,0.00036635,0.0,0 STARLINK-4128,1 53249U 22086H   22297.58334491  .00036635  00000-0  23107-2 0  9998,2 53249  53.2180 325.2727 0002613  24.8348   4.1243 15.08795909  1304,6918.015,95.44,541.688,538.072,0.0
53249.0,STARLINK-4128,PAYLOAD,2022-10-24 22:00:00,15.08792634,0.0002366,53.218,323.7747,28.0817,12.443,0.003139,0.0004996,0.0,0 STARLINK-4128,1 53249U 22086H   22297.91667824  .00049960  00000-0  31390-2 0  9992,2 53249  53.2180 323.7747 0002366  28.0817  12.4430 15.08792634  1303,6918.025,95.441,541.5269999999998,538.253,0.0
53249.0,STARLINK-4128,PAYLOAD,2022-10-25 06:00:00,15.08838925,0.0002501999999999,53.218,322.2794,28.9498,23.1293,-0.0014862999999999,-0.00023865,0.0,0 STARLINK-4128,1 53249U 22086H   22298.25001157 -.00023865  00000-0 -14863-2 0  9995,2 53249  53.2180 322.2794 0002502  28.9498  23.1293 15.08838925 14972,6917.884,95.438,541.48,538.018,0.0
53249.0,STARLINK-4128,PAYLOAD,2022-10-25 14:00:01,15.08820557,0.0002645,53.2174,320.7836,26.8089,36.8521,0.0016309,0.0002575,0.0,0 STARLINK-4128,1 53249U 22086H   22298.58334491  .00025750  00000-0  16309-2 0  9991,2 53249  53.2174 320.7836 0002645  26.8089  36.8521 15.08820557  1306,6917.94,95.439,541.635,537.975,0.0
53249.0,STARLINK-4128,PAYLOAD,2022-10-25 22:00:01,15.08813632,0.0002409,53.2174,319.2854,30.4955,44.8209,0.0031480999999999,0.00050136,0.0,0 STARLINK-4128,1 53249U 22086H   22298.91668981  .00050136  00000-0  31481-2 0  9996,2 53249  53.2174 319.2854 0002409  30.4955  44.8209 15.08813632 15077,6917.9609999999975,95.439,541.493,538.159,0.0
53249.0,STARLINK-4128,PAYLOAD,2022-10-26 14:00:01,15.08851184,0.0002695,53.217,316.2942,28.654,69.7848,0.00026929,4.001e-05,0.0,0 STARLINK-4128,1 53249U 22086H   22299.58334491  .00004001  00000-0  26929-3 0  9998,2 53249  53.2170 316.2942 0002695  28.6540  69.7848 15.08851184  1304,6917.846,95.437,541.576,537.847,0.0
53249.0,STARLINK-4128,PAYLOAD,2022-10-26 22:00:00,15.08820528,0.0002448,53.217,314.7961,31.1734,78.8848,0.0016997,0.00026852,0.0,0 STARLINK-4128,1 53249U 22086H   22299.91667824  .00026852  00000-0  16997-2 0  9995,2 53249  53.2170 314.7961 0002448  31.1734  78.8848 15.08820528  1307,6917.94,95.439,541.498,538.111,0.0
53249.0,STARLINK-4128,PAYLOAD,2022-10-27 14:00:01,15.08849325,0.0002723999999999,53.2168,311.8046,29.2978,104.0115,0.00092943,0.00014539,0.0,0 STARLINK-4128,1 53249U 22086H   22300.58335648  .00014539  00000-0  92943-3 0  9992,2 53249  53.2168 311.8046 0002724  29.2978 104.0115 15.08849325  1306,6917.852,95.437,541.601,537.832,0.0
53249.0,STARLINK-4128,PAYLOAD,2022-10-27 22:00:00,15.08846804,0.0002506999999999,53.2169,310.3065,31.9414,112.9234,7.531e-05,9.11e-06,0.0,0 STARLINK-4128,1 53249U 22086H   22300.91667824  .00000911  00000-0  75310-4 0  9992,2 53249  53.2169 310.3065 0002507  31.9414 112.9234 15.08846804  1305,6917.86,95.437,541.4590000000002,537.99,0.0
53249.0,STARLINK-4128,PAYLOAD,2022-10-28 08:00:01,15.08854895,0.0002714,53.2172,308.4376,30.0485,219.3919,-0.0020813,-0.00033276,0.0,0 STARLINK-4128,1 53249U 22086H   22301.33335648 -.00033276  00000-0 -20813-2 0  9993,2 53249  53.2172 308.4376 0002714  30.0485 219.3919 15.08854895 15430,6917.835,95.437,541.577,537.822,0.0
53249.0,STARLINK-4128,PAYLOAD,2022-10-28 14:00:01,15.08832931,0.0002714,53.2172,307.315,27.7879,140.3545,0.00038569,5.854e-05,0.0,0 STARLINK-4128,1 53249U 22086H   22301.58335648  .00005854  00000-0  38569-3 0  9997,2 53249  53.2172 307.3150 0002714  27.7879 140.3545 15.08832931  1304,6917.901999999999,95.438,541.645,537.889,0.0
53249.0,STARLINK-4128,PAYLOAD,2022-10-28 22:00:01,15.0883212,0.0002501,53.2174,305.817,30.31900000000001,149.4172,0.00049534,7.602e-05,0.0,0 STARLINK-4128,1 53249U 22086H   22301.91668981  .00007602  00000-0  49534-3 0  9990,2 53249  53.2174 305.8170 0002501  30.3190 149.4172 15.08832120 15526,6917.904,95.438,541.5,538.039,0.0
53249.0,STARLINK-4128,PAYLOAD,2022-10-29 12:00:00,15.08825287,0.0002773,53.2177,303.2004,27.4899,82.4707,0.0030079,0.00047891,0.0,0 STARLINK-4128,1 53249U 22086H   22302.50001157  .00047891  00000-0  30079-2 0  9999,2 53249  53.2177 303.2004 0002773  27.4899  82.4707 15.08825287  1308,6917.925,95.438,541.7090000000002,537.872,0.0
53249.0,STARLINK-4128,PAYLOAD,2022-10-29 22:00:01,15.08826862,0.0002501,53.218,301.3278,30.0921,184.449,0.0026758,0.0004253999999999,0.0,0 STARLINK-4128,1 53249U 22086H   22302.91668981  .00042540  00000-0  26758-2 0  9993,2 53249  53.2180 301.3278 0002501  30.0921 184.4490 15.08826862  1301,6917.920999999999,95.438,541.516,538.055,0.0
53249.0,STARLINK-4128,PAYLOAD,2022-10-30 00:00:00,15.08838213,0.0002488,53.2182,300.9539,31.0244,276.3486,0.0020827,0.00033013,0.0,0 STARLINK-4128,1 53249U 22086H   22303.00001157  .00033013  00000-0  20827-2 0  9996,2 53249  53.2182 300.9539 0002488  31.0244 276.3486 15.08838213 15697,6917.886,95.438,541.472,538.03,0.0
53249.0,STARLINK-4128,PAYLOAD,2022-10-30 14:00:01,15.08774763,0.0002444,53.2178,298.3339,28.1952,209.4448,0.0036016999999999,0.00057399,0.0,0 STARLINK-4128,1 53249U 22086H   22303.58334491  .00057399  00000-0  36017-2 0  9990,2 53249  53.2178 298.3339 0002444  28.1952 209.4448 15.08774763  1302,6918.08,95.442,541.636,538.254,0.0
53249.0,STARLINK-4128,PAYLOAD,2022-10-30 22:00:01,15.08807809,0.0002215,53.2183,296.8391,30.3986,218.8484,0.003245,0.0005168999999999,0.0,0 STARLINK-4128,1 53249U 22086H   22303.91668981  .00051690  00000-0  32450-2 0  9996,2 53249  53.2183 296.8391 0002215  30.3986 218.8484 15.08807809  1309,6917.979,95.44,541.376,538.311,0.0
53249.0,STARLINK-4128,PAYLOAD,2022-10-31 14:00:01,15.08879875,0.0002374,53.2181,293.848,27.8065,244.5475,-0.0041618,-0.00065992,0.0,0 STARLINK-4128,1 53249U 22086H   22304.58334491 -.00065992  00000-0 -41618-2 0  9994,2 53249  53.2181 293.8480 0002374  27.8065 244.5475 15.08879875  1306,6917.759,95.435,541.266,537.981,0.0
53249.0,STARLINK-4128,PAYLOAD,2022-10-31 22:00:01,15.08834756,0.0002186,53.2183,292.3503,31.7827,252.2535,0.00071398,0.00011092,0.0,0 STARLINK-4128,1 53249U 22086H   22304.91668981  .00011092  00000-0  71398-3 0  9994,2 53249  53.2183 292.3503 0002186  31.7827 252.2535 15.08834756 15980,6917.896,95.438,541.274,538.249,0.0
53249.0,STARLINK-4128,PAYLOAD,2022-11-01 14:00:01,15.08868638,0.000236,53.2177,289.3591,30.23,276.918,-0.0043692,-0.00069214,0.0,0 STARLINK-4128,1 53249U 22086H   22305.58334491 -.00069214  00000-0 -43692-2 0  9990,2 53249  53.2177 289.3591 0002360  30.2300 276.9180 15.08868638  1306,6917.793000000002,95.436,541.29,538.025,0.0
53249.0,STARLINK-4128,PAYLOAD,2022-11-01 22:00:00,15.08817692,0.0002145999999999,53.2178,287.8617,33.4017,285.3496,0.0024494,0.00038886,0.0,0 STARLINK-4128,1 53249U 22086H   22305.91667824  .00038886  00000-0  24494-2 0  9994,2 53249  53.2178 287.8617 0002146  33.4017 285.3496 15.08817692  1309,6917.949000000001,95.439,541.298,538.3290000000002,0.0
53249.0,STARLINK-4128,PAYLOAD,2022-11-02 14:00:01,15.08841648,0.000229,53.217,284.867,29.7923,312.1212,-0.0012017999999999,-0.00019366,0.0,0 STARLINK-4128,1 53249U 22086H   22306.58334491 -.00019366  00000-0 -12018-2 0  9992,2 53249  53.2170 284.8670 0002290  29.7923 312.1212 15.08841648  1304,6917.875,95.437,541.325,538.156,0.0
53249.0,STARLINK-4128,PAYLOAD,2022-11-02 18:51:00,15.08837662,0.0002251,53.2187,283.9625,31.8834,328.2294,1.9343000000000003e-06,-2.58e-06,0.0,0 STARLINK-4128,1 53249U 22086H   22306.78541772 -.00000258  00000-0  19343-5 0  9996,2 53249  53.2187 283.9625 0002251  31.8834 328.2294 15.08837662 16466,6917.888000000001,95.438,541.31,538.195,0.0
53249.0,STARLINK-4128,PAYLOAD,2022-11-03 04:23:18,15.08846371,0.000228,53.2186,282.1783,33.4872,326.6264,0.00012837,1.756e-05,0.0,0 STARLINK-4128,1 53249U 22086H   22307.18284939  .00001756  00000-0  12837-3 0  9992,2 53249  53.2186 282.1783 0002280  33.4872 326.6264 15.08846371 16324,6917.861,95.437,541.303,538.149,0.0
